*******************************************************************************
Ephemeris / WWW_USER Mon Mar 10 08:44:12 2025 Pasadena, USA      / Horizons    
*******************************************************************************
Target body name: (2018 PL28)                     {source: JPL#6}
Center body name: Earth (399)                     {source: DE441}
Center-site name: Mauna Kea
*******************************************************************************
Start time      : A.D. 2018-Nov-23 03:51:00.0000 UT      
Stop  time      : A.D. 2018-Nov-23 16:25:00.0000 UT      
Step-size       : 1 minutes
*******************************************************************************
Target pole/equ : undefined
Target radii    : undefined                                                    
Center geodetic : 204.5278, 19.8260847, 4.21024   {E-lon(deg),Lat(deg),Alt(km)}
Center cylindric: 204.5278, 6006.35451, 2151.0229 {E-lon(deg),Dxy(km),Dz(km)}
Center pole/equ : ITRF93                          {East-longitude positive}
Center radii    : 6378.137, 6378.137, 6356.752 km {Equator_a, b, pole_c}       
Target primary  : Sun
Vis. interferer : MOON (R_eq= 1737.400) km        {source: DE441}
Rel. light bend : Sun                             {source: DE441}
Rel. lght bnd GM: 1.3271E+11 km^3/s^2                                          
Small-body perts: Yes                             {source: SB441-N16}
Atmos refraction: NO (AIRLESS)
RA format       : HMS
Time format     : CAL 
Calendar mode   : Mixed Julian/Gregorian
RTS-only print  : NO       
EOP file        : eop.250307.p250603                                           
EOP coverage    : DATA-BASED 1962-JAN-20 TO 2025-MAR-07. PREDICTS-> 2025-JUN-02
Units conversion: 1 au= 149597870.700 km, c= 299792.458 km/s, 1 day= 86400.0 s 
Table cut-offs 1: Elevation (-90.0deg=NO ),Airmass (>38.000=NO), Daylight (YES)
Table cut-offs 2: Solar elongation (  0.0,180.0=NO ),Local Hour Angle( 0.0=NO )
Table cut-offs 3: RA/DEC angular rate (     0.0=NO )                           
*******************************************************************************
Initial IAU76/J2000 heliocentric ecliptic osculating elements (au, days, deg.):
  EPOCH=  2457854.5 ! 2017-Apr-11.00 (TDB)         Residual RMS= .19092        
   EC= .8623380004677549   QR= 2.686075926237564   TP= 2457951.5509793968      
   OM= 350.7805373480467   W=  275.0956674869335   IN= 74.19591911353062       
  Equivalent ICRF heliocentric cartesian coordinates (au, au/d):
   X=-1.230595634603956E+00  Y= 5.216934222523280E-01  Z=-2.512561684350396E+00
  VX= 1.337943797263742E-02 VY=-1.672601025687851E-03 VZ=-3.313586071138778E-03
Asteroid physical parameters (km, seconds, rotational period in hours):        
   GM= n.a.                RAD= n.a.               ROTPER= n.a.                
   H= 14.87                G= .150                 B-V= n.a.                   
                           ALBEDO= n.a.            STYP= n.a.                  
*******************************************************************************
 Date__(UT)__HR:MN     R.A._________(ICRF)_________DEC
******************************************************
$$SOE
 2018-Nov-23 05:54  m  22 41 56.880814 -00 35 38.73595
 2018-Nov-23 05:55  m  22 41 56.876430 -00 35 38.59785
 2018-Nov-23 05:56  m  22 41 56.872047 -00 35 38.45974
 2018-Nov-23 05:57  m  22 41 56.867665 -00 35 38.32164
 2018-Nov-23 05:58  m  22 41 56.863284 -00 35 38.18353
 2018-Nov-23 05:59  m  22 41 56.858903 -00 35 38.04542
 2018-Nov-23 06:00  m  22 41 56.854524 -00 35 37.90731
 2018-Nov-23 06:01  m  22 41 56.850146 -00 35 37.76920
 2018-Nov-23 06:02  m  22 41 56.845769 -00 35 37.63109
 2018-Nov-23 06:03  m  22 41 56.841393 -00 35 37.49297
 2018-Nov-23 06:04  m  22 41 56.837017 -00 35 37.35486
 2018-Nov-23 06:05  m  22 41 56.832643 -00 35 37.21674
 2018-Nov-23 06:06  m  22 41 56.828270 -00 35 37.07862
 2018-Nov-23 06:07  m  22 41 56.823898 -00 35 36.94050
 2018-Nov-23 06:08  m  22 41 56.819527 -00 35 36.80238
 2018-Nov-23 06:09  m  22 41 56.815158 -00 35 36.66426
 2018-Nov-23 06:10  m  22 41 56.810789 -00 35 36.52613
 2018-Nov-23 06:11  m  22 41 56.806421 -00 35 36.38801
 2018-Nov-23 06:12  m  22 41 56.802054 -00 35 36.24988
 2018-Nov-23 06:13  m  22 41 56.797689 -00 35 36.11175
 2018-Nov-23 06:14  m  22 41 56.793325 -00 35 35.97362
 2018-Nov-23 06:15  m  22 41 56.788961 -00 35 35.83549
 2018-Nov-23 06:16  m  22 41 56.784599 -00 35 35.69735
 2018-Nov-23 06:17  m  22 41 56.780238 -00 35 35.55922
 2018-Nov-23 06:18  m  22 41 56.775879 -00 35 35.42108
 2018-Nov-23 06:19  m  22 41 56.771520 -00 35 35.28294
 2018-Nov-23 06:20  m  22 41 56.767163 -00 35 35.14480
 2018-Nov-23 06:21  m  22 41 56.762806 -00 35 35.00666
 2018-Nov-23 06:22  m  22 41 56.758451 -00 35 34.86852
 2018-Nov-23 06:23  m  22 41 56.754097 -00 35 34.73038
 2018-Nov-23 06:24  m  22 41 56.749745 -00 35 34.59223
 2018-Nov-23 06:25  m  22 41 56.745393 -00 35 34.45409
 2018-Nov-23 06:26  m  22 41 56.741043 -00 35 34.31594
 2018-Nov-23 06:27  m  22 41 56.736694 -00 35 34.17779
 2018-Nov-23 06:28  m  22 41 56.732346 -00 35 34.03964
 2018-Nov-23 06:29  m  22 41 56.728000 -00 35 33.90148
 2018-Nov-23 06:30  m  22 41 56.723654 -00 35 33.76333
 2018-Nov-23 06:31  m  22 41 56.719310 -00 35 33.62517
 2018-Nov-23 06:32  m  22 41 56.714968 -00 35 33.48702
 2018-Nov-23 06:33  m  22 41 56.710626 -00 35 33.34886
 2018-Nov-23 06:34  m  22 41 56.706286 -00 35 33.21070
 2018-Nov-23 06:35  m  22 41 56.701947 -00 35 33.07254
 2018-Nov-23 06:36  m  22 41 56.697610 -00 35 32.93437
 2018-Nov-23 06:37  m  22 41 56.693274 -00 35 32.79621
 2018-Nov-23 06:38  m  22 41 56.688939 -00 35 32.65804
 2018-Nov-23 06:39  m  22 41 56.684605 -00 35 32.51988
 2018-Nov-23 06:40  m  22 41 56.680273 -00 35 32.38171
 2018-Nov-23 06:41  m  22 41 56.675942 -00 35 32.24354
 2018-Nov-23 06:42  m  22 41 56.671613 -00 35 32.10536
 2018-Nov-23 06:43  m  22 41 56.667285 -00 35 31.96719
 2018-Nov-23 06:44  m  22 41 56.662958 -00 35 31.82902
 2018-Nov-23 06:45  m  22 41 56.658633 -00 35 31.69084
 2018-Nov-23 06:46  m  22 41 56.654309 -00 35 31.55266
 2018-Nov-23 06:47  m  22 41 56.649986 -00 35 31.41448
 2018-Nov-23 06:48  m  22 41 56.645665 -00 35 31.27630
 2018-Nov-23 06:49  m  22 41 56.641346 -00 35 31.13812
 2018-Nov-23 06:50  m  22 41 56.637028 -00 35 30.99994
 2018-Nov-23 06:51  m  22 41 56.632711 -00 35 30.86175
 2018-Nov-23 06:52  m  22 41 56.628395 -00 35 30.72357
 2018-Nov-23 06:53  m  22 41 56.624082 -00 35 30.58538
 2018-Nov-23 06:54  m  22 41 56.619769 -00 35 30.44719
 2018-Nov-23 06:55  m  22 41 56.615458 -00 35 30.30900
 2018-Nov-23 06:56  m  22 41 56.611149 -00 35 30.17081
 2018-Nov-23 06:57  m  22 41 56.606841 -00 35 30.03261
 2018-Nov-23 06:58  m  22 41 56.602534 -00 35 29.89442
 2018-Nov-23 06:59  m  22 41 56.598229 -00 35 29.75622
 2018-Nov-23 07:00  m  22 41 56.593926 -00 35 29.61802
 2018-Nov-23 07:01  m  22 41 56.589624 -00 35 29.47983
 2018-Nov-23 07:02  m  22 41 56.585323 -00 35 29.34162
 2018-Nov-23 07:03  m  22 41 56.581025 -00 35 29.20342
 2018-Nov-23 07:04  m  22 41 56.576727 -00 35 29.06522
 2018-Nov-23 07:05  m  22 41 56.572432 -00 35 28.92701
 2018-Nov-23 07:06  m  22 41 56.568137 -00 35 28.78881
 2018-Nov-23 07:07  m  22 41 56.563845 -00 35 28.65060
 2018-Nov-23 07:08  m  22 41 56.559554 -00 35 28.51239
 2018-Nov-23 07:09  m  22 41 56.555264 -00 35 28.37418
 2018-Nov-23 07:10  m  22 41 56.550976 -00 35 28.23597
 2018-Nov-23 07:11  m  22 41 56.546690 -00 35 28.09775
 2018-Nov-23 07:12  m  22 41 56.542405 -00 35 27.95954
 2018-Nov-23 07:13  m  22 41 56.538122 -00 35 27.82132
 2018-Nov-23 07:14  m  22 41 56.533841 -00 35 27.68310
 2018-Nov-23 07:15  m  22 41 56.529561 -00 35 27.54488
 2018-Nov-23 07:16  m  22 41 56.525283 -00 35 27.40666
 2018-Nov-23 07:17  m  22 41 56.521007 -00 35 27.26844
 2018-Nov-23 07:18  m  22 41 56.516732 -00 35 27.13021
 2018-Nov-23 07:19  m  22 41 56.512459 -00 35 26.99199
 2018-Nov-23 07:20  m  22 41 56.508187 -00 35 26.85376
 2018-Nov-23 07:21  m  22 41 56.503917 -00 35 26.71553
 2018-Nov-23 07:22  m  22 41 56.499649 -00 35 26.57730
 2018-Nov-23 07:23  m  22 41 56.495383 -00 35 26.43907
 2018-Nov-23 07:24  m  22 41 56.491118 -00 35 26.30084
 2018-Nov-23 07:25  m  22 41 56.486855 -00 35 26.16261
 2018-Nov-23 07:26  m  22 41 56.482594 -00 35 26.02437
 2018-Nov-23 07:27  m  22 41 56.478334 -00 35 25.88614
 2018-Nov-23 07:28  m  22 41 56.474076 -00 35 25.74790
 2018-Nov-23 07:29  m  22 41 56.469820 -00 35 25.60966
 2018-Nov-23 07:30  m  22 41 56.465566 -00 35 25.47142
 2018-Nov-23 07:31  m  22 41 56.461313 -00 35 25.33317
 2018-Nov-23 07:32  m  22 41 56.457062 -00 35 25.19493
 2018-Nov-23 07:33  m  22 41 56.452813 -00 35 25.05668
 2018-Nov-23 07:34  m  22 41 56.448566 -00 35 24.91844
 2018-Nov-23 07:35  m  22 41 56.444321 -00 35 24.78019
 2018-Nov-23 07:36  m  22 41 56.440077 -00 35 24.64194
 2018-Nov-23 07:37  m  22 41 56.435835 -00 35 24.50369
 2018-Nov-23 07:38  m  22 41 56.431595 -00 35 24.36544
 2018-Nov-23 07:39  m  22 41 56.427357 -00 35 24.22718
 2018-Nov-23 07:40  m  22 41 56.423120 -00 35 24.08893
 2018-Nov-23 07:41  m  22 41 56.418885 -00 35 23.95067
 2018-Nov-23 07:42  m  22 41 56.414653 -00 35 23.81241
 2018-Nov-23 07:43  m  22 41 56.410422 -00 35 23.67415
 2018-Nov-23 07:44  m  22 41 56.406193 -00 35 23.53589
 2018-Nov-23 07:45  m  22 41 56.401965 -00 35 23.39763
 2018-Nov-23 07:46  m  22 41 56.397740 -00 35 23.25937
 2018-Nov-23 07:47  m  22 41 56.393516 -00 35 23.12110
 2018-Nov-23 07:48  m  22 41 56.389295 -00 35 22.98284
 2018-Nov-23 07:49  m  22 41 56.385075 -00 35 22.84457
 2018-Nov-23 07:50  m  22 41 56.380857 -00 35 22.70630
 2018-Nov-23 07:51  m  22 41 56.376641 -00 35 22.56803
 2018-Nov-23 07:52  m  22 41 56.372427 -00 35 22.42975
 2018-Nov-23 07:53  m  22 41 56.368215 -00 35 22.29148
 2018-Nov-23 07:54  m  22 41 56.364005 -00 35 22.15321
 2018-Nov-23 07:55  m  22 41 56.359797 -00 35 22.01493
 2018-Nov-23 07:56  m  22 41 56.355590 -00 35 21.87665
